{
  "norad_id": 66395,
  "name": "STARLINK-35681",
  "history": [
    {
      "epoch": "2026-03-28T13:19:09.953184Z",
      "apogee_km": 475.90547651877296,
      "perigee_km": 474.4416093867994,
      "latitude_deg": -2.0420194781872852e-05,
      "longitude_deg": 103.50266778199658,
      "height_km": 475.9868549254676,
      "semi_major_axis_km": 6853.310542952786,
      "eccentricity": 0.0001068,
      "inclination_deg": 53.1595,
      "raan_deg": 129.2679,
      "arg_perigee_deg": 83.3309,
      "mean_anomaly_deg": 276.7813,
      "mean_motion_rev_day": 15.30213908
    },
    {
      "epoch": "2026-03-29T01:51:34.701408Z",
      "apogee_km": 476.0156501694337,
      "perigee_km": 474.2173564501654,
      "latitude_deg": 6.842878028918062e-06,
      "longitude_deg": -87.54223767544042,
      "height_km": 475.83278330473536,
      "semi_major_axis_km": 6853.253503309799,
      "eccentricity": 0.0001312,
      "inclination_deg": 53.1588,
      "raan_deg": 126.8411,
      "arg_perigee_deg": 78.3439,
      "mean_anomaly_deg": 281.7709,
      "mean_motion_rev_day": 15.30233012
    },
    {
      "epoch": "2026-03-30T06:04:31.555200Z",
      "apogee_km": 475.9921257218821,
      "perigee_km": 474.42641023349915,
      "latitude_deg": 2.1892171499183124e-05,
      "longitude_deg": -157.3990979323788,
      "height_km": 476.2714630336529,
      "semi_major_axis_km": 6853.34626797769,
      "eccentricity": 0.00011423,
      "inclination_deg": 53.1581,
      "raan_deg": 121.3799,
      "arg_perigee_deg": 102.1015,
      "mean_anomaly_deg": 258.0114,
      "mean_motion_rev_day": 15.30201943
    },
    {
      "epoch": "2026-03-30T12:20:44.507328Z",
      "apogee_km": 475.9450303093172,
      "perigee_km": 474.5446102681599,
      "latitude_deg": -2.2206968824196355e-05,
      "longitude_deg": 107.07669169957423,
      "height_km": 476.20824815611945,
      "semi_major_axis_km": 6853.381820288739,
      "eccentricity": 0.00010217,
      "inclination_deg": 53.158,
      "raan_deg": 120.1672,
      "arg_perigee_deg": 95.3451,
      "mean_anomaly_deg": 264.7666,
      "mean_motion_rev_day": 15.30190036
    },
    {
      "epoch": "2026-03-30T18:36:57.776544Z",
      "apogee_km": 476.0438936260016,
      "perigee_km": 474.4666539281143,
      "latitude_deg": -3.687267828292464e-05,
      "longitude_deg": 11.547278444694184,
      "height_km": 475.9848328284032,
      "semi_major_axis_km": 6853.392273777057,
      "eccentricity": 0.00011507,
      "inclination_deg": 53.1578,
      "raan_deg": 118.9506,
      "arg_perigee_deg": 77.6642,
      "mean_anomaly_deg": 282.4487,
      "mean_motion_rev_day": 15.30186535
    },
    {
      "epoch": "2026-03-31T18:07:46.161696Z",
      "apogee_km": 476.0486865152352,
      "perigee_km": 474.3531707116963,
      "latitude_deg": -2.651240821445969e-05,
      "longitude_deg": 13.330320003141805,
      "height_km": 476.0664885153978,
      "semi_major_axis_km": 6853.337928613465,
      "eccentricity": 0.0001237,
      "inclination_deg": 53.1576,
      "raan_deg": 114.4009,
      "arg_perigee_deg": 87.8158,
      "mean_anomaly_deg": 272.2984,
      "mean_motion_rev_day": 15.30204736
    },
    {
      "epoch": "2026-04-01T11:22:20.374752Z",
      "apogee_km": 475.8046917538368,
      "perigee_km": 474.4532277065773,
      "latitude_deg": 6.542268805362883e-05,
      "longitude_deg": 110.6444968805643,
      "height_km": 476.1381180108471,
      "semi_major_axis_km": 6853.265959730206,
      "eccentricity": 9.86e-05,
      "inclination_deg": 53.1578,
      "raan_deg": 111.0657,
      "arg_perigee_deg": 99.4476,
      "mean_anomaly_deg": 260.6637,
      "mean_motion_rev_day": 15.3022884
    },
    {
      "epoch": "2026-04-02T07:45:01.358496Z",
      "apogee_km": 475.93067471725044,
      "perigee_km": 474.359765366773,
      "latitude_deg": -2.2433154177992604e-06,
      "longitude_deg": 160.19128491838566,
      "height_km": 476.034786768939,
      "semi_major_axis_km": 6853.282220042011,
      "eccentricity": 0.00011461,
      "inclination_deg": 53.158,
      "raan_deg": 107.1202,
      "arg_perigee_deg": 89.382,
      "mean_anomaly_deg": 270.7312,
      "mean_motion_rev_day": 15.30223394
    }
  ]
}